{
  "type": "FeatureCollection",
  "features": [
    {
      "type": "Feature",
      "properties": {
        "norad_id": 40938,
        "name": "BEIDOU-3S IGSO-2S (C56)",
        "group": "beidou",
        "lat": 8.312322211153063,
        "lon": 73.83771201353827,
        "alt_km": 35543.54207744669,
        "timestamp": "2025-12-12T16:50:33.409906+00:00",
        "meta_object_name": "BEIDOU-3S IGSO-2S (C56)",
        "meta_object_id": "2015-053A",
        "meta_epoch": "2025-12-11T20:42:15.107040",
        "meta_mean_motion": 1.00269874,
        "meta_eccentricity": 0.00609594,
        "meta_inclination": 49.5118,
        "meta_ra_of_asc_node": 261.0153,
        "meta_arg_of_pericenter": 188.7908,
        "meta_mean_anomaly": 37.5981,
        "meta_ephemeris_type": 0,
        "meta_classification_type": "U",
        "meta_norad_cat_id": 40938,
        "meta_element_set_no": 999,
        "meta_rev_at_epoch": 3747,
        "meta_bstar": 0,
        "meta_mean_motion_dot": -1.57e-06,
        "meta_mean_motion_ddot": 0,
        "tle_line1": "1 40938U 15053A   25345.86267485 -.00000157  00000+0  00000+0 0  9995",
        "tle_line2": "2 40938  49.5118 261.0153 0060959 188.7908  37.5981  1.00269874 37473"
      },
      "geometry": {
        "type": "Point",
        "coordinates": [
          73.83771201353827,
          8.312322211153063
        ]
      }
    },
    {
      "type": "Feature",
      "properties": {
        "norad_id": 41434,
        "name": "BEIDOU-2 IGSO-6 (C13)",
        "group": "beidou",
        "lat": 23.606170426641665,
        "lon": 54.55330667580601,
        "alt_km": 36015.64040592202,
        "timestamp": "2025-12-12T16:50:33.409917+00:00",
        "meta_object_name": "BEIDOU-2 IGSO-6 (C13)",
        "meta_object_id": "2016-021A",
        "meta_epoch": "2025-12-11T15:29:12.615360",
        "meta_mean_motion": 1.00293077,
        "meta_eccentricity": 0.00608616,
        "meta_inclination": 59.9644,
        "meta_ra_of_asc_node": 39.9082,
        "meta_arg_of_pericenter": 229.9753,
        "meta_mean_anomaly": 135.9177,
        "meta_ephemeris_type": 0,
        "meta_classification_type": "U",
        "meta_norad_cat_id": 41434,
        "meta_element_set_no": 999,
        "meta_rev_at_epoch": 3560,
        "meta_bstar": 0,
        "meta_mean_motion_dot": -1.62e-06,
        "meta_mean_motion_ddot": 0,
        "tle_line1": "1 41434U 16021A   25345.64528490 -.00000162  00000+0  00000+0 0  9991",
        "tle_line2": "2 41434  59.9644  39.9082 0060861 229.9753 135.9177  1.00293077 35600"
      },
      "geometry": {
        "type": "Point",
        "coordinates": [
          54.55330667580601,
          23.606170426641665
        ]
      }
    },
    {
      "type": "Feature",
      "properties": {
        "norad_id": 41586,
        "name": "BEIDOU-2 G7 (C03)",
        "group": "beidou",
        "lat": 0.5304360937382347,
        "lon": 84.70883717549395,
        "alt_km": 35769.2545309541,
        "timestamp": "2025-12-12T16:50:33.409929+00:00",
        "meta_object_name": "BEIDOU-2 G7 (C03)",
        "meta_object_id": "2016-037A",
        "meta_epoch": "2025-12-12T07:09:24.994080",
        "meta_mean_motion": 1.00267359,
        "meta_eccentricity": 0.0004472,
        "meta_inclination": 1.7563,
        "meta_ra_of_asc_node": 67.7595,
        "meta_arg_of_pericenter": 359.4663,
        "meta_mean_anomaly": 231.8039,
        "meta_ephemeris_type": 0,
        "meta_classification_type": "U",
        "meta_norad_cat_id": 41586,
        "meta_element_set_no": 999,
        "meta_rev_at_epoch": 501,
        "meta_bstar": 0,
        "meta_mean_motion_dot": -3.43e-06,
        "meta_mean_motion_ddot": 0,
        "tle_line1": "1 41586U 16037A   25346.29820595 -.00000343  00000+0  00000+0 0  9990",
        "tle_line2": "2 41586   1.7563  67.7595 0004472 359.4663 231.8039  1.00267359  5015"
      },
      "geometry": {
        "type": "Point",
        "coordinates": [
          84.70883717549395,
          0.5304360937382347
        ]
      }
    },
    {
      "type": "Feature",
      "properties": {
        "norad_id": 43001,
        "name": "BEIDOU-3 M1 (C19)",
        "group": "beidou",
        "lat": -52.67268030186988,
        "lon": 9.18942279036662,
        "alt_km": 21509.58724495857,
        "timestamp": "2025-12-12T16:50:33.409941+00:00",
        "meta_object_name": "BEIDOU-3 M1 (C19)",
        "meta_object_id": "2017-069A",
        "meta_epoch": "2025-12-10T02:59:44.237184",
        "meta_mean_motion": 1.86231011,
        "meta_eccentricity": 0.0009053,
        "meta_inclination": 56.5252,
        "meta_ra_of_asc_node": 69.32,
        "meta_arg_of_pericenter": 303.7778,
        "meta_mean_anomaly": 56.1585,
        "meta_ephemeris_type": 0,
        "meta_classification_type": "U",
        "meta_norad_cat_id": 43001,
        "meta_element_set_no": 999,
        "meta_rev_at_epoch": 5508,
        "meta_bstar": 0,
        "meta_mean_motion_dot": -5.2e-07,
        "meta_mean_motion_ddot": 0,
        "tle_line1": "1 43001U 17069A   25344.12481756 -.00000052  00000+0  00000+0 0  9999",
        "tle_line2": "2 43001  56.5252  69.3200 0009053 303.7778  56.1585  1.86231011 55088"
      },
      "geometry": {
        "type": "Point",
        "coordinates": [
          9.18942279036662,
          -52.67268030186988
        ]
      }
    },
    {
      "type": "Feature",
      "properties": {
        "norad_id": 43002,
        "name": "BEIDOU-3 M2 (C20)",
        "group": "beidou",
        "lat": -25.446656093180533,
        "lon": 50.95306395603195,
        "alt_km": 21514.070191119044,
        "timestamp": "2025-12-12T16:50:33.409952+00:00",
        "meta_object_name": "BEIDOU-3 M2 (C20)",
        "meta_object_id": "2017-069B",
        "meta_epoch": "2025-12-09T12:37:45.819264",
        "meta_mean_motion": 1.8623055,
        "meta_eccentricity": 0.0006254,
        "meta_inclination": 56.5238,
        "meta_ra_of_asc_node": 69.3764,
        "meta_arg_of_pericenter": 332.6094,
        "meta_mean_anomaly": 27.38,
        "meta_ephemeris_type": 0,
        "meta_classification_type": "U",
        "meta_norad_cat_id": 43002,
        "meta_element_set_no": 999,
        "meta_rev_at_epoch": 5506,
        "meta_bstar": 0,
        "meta_mean_motion_dot": -4.8e-07,
        "meta_mean_motion_ddot": 0,
        "tle_line1": "1 43002U 17069B   25343.52622476 -.00000048  00000+0  00000+0 0  9994",
        "tle_line2": "2 43002  56.5238  69.3764 0006254 332.6094  27.3800  1.86230550 55065"
      },
      "geometry": {
        "type": "Point",
        "coordinates": [
          50.95306395603195,
          -25.446656093180533
        ]
      }
    },
    {
      "type": "Feature",
      "properties": {
        "norad_id": 43107,
        "name": "BEIDOU-3 M7 (C27)",
        "group": "beidou",
        "lat": 30.50401347504901,
        "lon": 103.94588426538368,
        "alt_km": 21521.76763129997,
        "timestamp": "2025-12-12T16:50:33.409963+00:00",
        "meta_object_name": "BEIDOU-3 M7 (C27)",
        "meta_object_id": "2018-003A",
        "meta_epoch": "2025-12-10T08:14:11.609952",
        "meta_mean_motion": 1.86232173,
        "meta_eccentricity": 0.00026083,
        "meta_inclination": 54.4988,
        "meta_ra_of_asc_node": 308.8983,
        "meta_arg_of_pericenter": 70.7786,
        "meta_mean_anomaly": 289.2405,
        "meta_ephemeris_type": 0,
        "meta_classification_type": "U",
        "meta_norad_cat_id": 43107,
        "meta_element_set_no": 999,
        "meta_rev_at_epoch": 5383,
        "meta_bstar": 0,
        "meta_mean_motion_dot": -8.2e-07,
        "meta_mean_motion_ddot": 0,
        "tle_line1": "1 43107U 18003A   25344.34318993 -.00000082  00000+0  00000+0 0  9994",
        "tle_line2": "2 43107  54.4988 308.8983 0002608  70.7786 289.2405  1.86232173 53837"
      },
      "geometry": {
        "type": "Point",
        "coordinates": [
          103.94588426538368,
          30.50401347504901
        ]
      }
    },
    {
      "type": "Feature",
      "properties": {
        "norad_id": 43108,
        "name": "BEIDOU-3 M8 (C28)",
        "group": "beidou",
        "lat": 1.4608423385054714,
        "lon": 127.73843406894375,
        "alt_km": 21529.564494944643,
        "timestamp": "2025-12-12T16:50:33.409974+00:00",
        "meta_object_name": "BEIDOU-3 M8 (C28)",
        "meta_object_id": "2018-003B",
        "meta_epoch": "2025-12-11T21:34:27.935616",
        "meta_mean_motion": 1.86230641,
        "meta_eccentricity": 0.0004792,
        "meta_inclination": 54.4903,
        "meta_ra_of_asc_node": 308.8266,
        "meta_arg_of_pericenter": 274.144,
        "meta_mean_anomaly": 85.7923,
        "meta_ephemeris_type": 0,
        "meta_classification_type": "U",
        "meta_norad_cat_id": 43108,
        "meta_element_set_no": 999,
        "meta_rev_at_epoch": 5387,
        "meta_bstar": 0,
        "meta_mean_motion_dot": -9e-07,
        "meta_mean_motion_ddot": 0,
        "tle_line1": "1 43108U 18003B   25345.89893444 -.00000090  00000+0  00000+0 0  9994",
        "tle_line2": "2 43108  54.4903 308.8266 0004792 274.1440  85.7923  1.86230641 53878"
      },
      "geometry": {
        "type": "Point",
        "coordinates": [
          127.73843406894375,
          1.4608423385054714
        ]
      }
    }
  ]
}